ONEWEB-0317             
1 49103U 21075AE  23292.25559825 -.00000063  00000+0 -21076-3 0  9990
2 49103  87.9063 183.9333 0001559  67.8471 292.2823 13.12442179107702
ONEWEB-0318             
1 49104U 21075AF  23292.17886912 -.00000106  00000+0 -30259-3 0  9993
2 49104  87.9200 168.8142 0001977  89.7671 270.3688 13.18686598109063
ONEWEB-0319             
1 49105U 21075AG  23292.26779225  .00000029  00000+0  42610-4 0  9999
2 49105  87.9263 199.0341 0001793  97.6037 262.5298 13.17650636105610
ONEWEB-0323             
1 49106U 21075AH  23292.93220029  .00000319  00000+0  85241-3 0  9995
2 49106  87.9062 183.7880 0001642  83.5721 276.5595 13.12441321107153
ONEWEB-0329             
1 49107U 21075AJ  23292.27411773  .00000034  00000+0  53817-4 0  9990
2 49107  87.9264 199.0361 0001600  81.2294 278.9019 13.17650272106581
ONEWEB-0330             
1 49108U 21075AK  23292.27622049 -.00003985  00000+0 -10297-1 0  9993
2 49108  87.9251 199.0471 0001455  73.8291 286.3001 13.17671522105632
ONEWEB-0292             
1 49186U 21083A   23292.89943576  .00000029  00000+0  45819-4 0  9992
2 49186  87.9022 153.5184 0001746  80.0205 280.1121 13.13470108104714
ONEWEB-0303             
1 49187U 21083B   23292.93342006  .00000008  00000+0 -11621-4 0  9991
2 49187  87.9197 168.6673 0001762  86.0680 274.0654 13.18685364101974
